COSMOS 2433 (720)       
1 32275U 07052A   22331.39942663 -.00000047  00000+0  00000+0 0  9996
2 32275  66.0707 359.2649 0005194 246.9166 100.6810  2.13104245117432
COSMOS 2432 (719)       
1 32276U 07052B   22331.25257756 -.00000047  00000+0  00000+0 0  9994
2 32276  66.0847 359.3739 0010194 313.1648 229.6179  2.13103428117439
COSMOS 2434 (721)       
1 32393U 07065A   22331.25326013  .00000027  00000+0  00000+0 0  9998
2 32393  64.3613 235.8726 0002788  68.9307  56.6508  2.13103204116145
COSMOS 2436 (723)       
1 32395U 07065C   22331.38104907  .00000026  00000+0  00000+0 0  9999
2 32395  64.3694 235.9266 0016184 359.6017 359.7568  2.13102892116076
COSMOS 2456 (730)       
1 36111U 09070A   22330.53204939  .00000056  00000+0  00000+0 0  9992
2 36111  64.3978 115.4871 0001264 333.2892 122.3238  2.13099203100798
COSMOS 2457 (733)       
1 36112U 09070B   22330.90973045  .00000057  00000+0  00000+0 0  9996
2 36112  64.3829 115.3464 0006811 150.9198   3.0105  2.13101419100800
COSMOS 2460 (732)       
1 36402U 10007C   22331.23692047 -.00000046  00000+0  00000+0 0  9996
2 36402  65.9392 358.0322 0002194 249.0192 141.1045  2.13106463 99164
COSMOS 2464 (736)       
1 37139U 10041C   22331.41254412  .00000026  00000+0  00000+0 0  9999
2 37139  63.9608 234.8618 0030143   9.8984  94.9275  2.13100917 95226
COSMOS 2476 (744)       
1 37867U 11064A   22331.18868840  .00000061  00000+0  00000+0 0  9992
2 37867  64.6842 116.8840 0020864 229.9650 276.2743  2.13101827 86150
COSMOS 2477 (745)       
1 37868U 11064B   22330.89771700  .00000060  00000+0  00000+0 0  9997
2 37868  64.6922 116.9608 0018148 230.3174 230.7367  2.13101730 86107
COSMOS 2475 (743)       
1 37869U 11064C   22330.35977640  .00000058  00000+0  00000+0 0  9997
2 37869  64.6992 116.9886 0021866 249.8961 116.6622  2.13101919 86108
COSMOS 2485 (747)       
1 39155U 13019A   22331.39484998  .00000063  00000+0  00000+0 0  9999
2 39155  64.8460 117.3402 0021420 226.0015 122.8031  2.13101917 74627
COSMOS 2492 (754)       
1 39620U 14012A   22331.43541844 -.00000047  00000+0  00000+0 0  9992
2 39620  65.8241 357.6841 0013491 312.3939 101.8569  2.13103287 67583
COSMOS 2500 (755)       
1 40001U 14032A   22330.74317031 -.00000044  00000+0  00000+0 0  9998
2 40001  65.7640 357.5564 0008193 215.2471 246.1275  2.13102382 65788
COSMOS 2501 (702K)      
1 40315U 14075A   22330.84297924  .00000032  00000+0  00000+0 0  9998
2 40315  63.6670 235.4881 0017931 209.1632 137.5723  2.13101365 62185
COSMOS 2514 (751)       
1 41330U 16008A   22331.30949315 -.00000047  00000+0  00000+0 0  9991
2 41330  65.5628 357.1877 0012073 220.7924 139.1718  2.13102596 52963
COSMOS 2516 (753)       
1 41554U 16032A   22330.49343683  .00000035  00000+0  00000+0 0  9997
2 41554  63.8924 235.8233 0014213 214.3255 145.6476  2.13106248 50557
COSMOS 2522 (752)       
1 42939U 17055A   22331.35579295  .00000026  00000+0  00000+0 0  9997
2 42939  64.1273 236.2352 0007463 246.0879 269.5917  2.13102119 40329
COSMOS 2527 (756)       
1 43508U 18053A   22330.71457080  .00000060  00000+0  00000+0 0  9993
2 43508  65.0089 117.3967 0007601 212.4258 203.3562  2.13102524 34606
COSMOS 2529 (757)       
1 43687U 18086A   22330.55191756  .00000034  00000+0  00000+0 0  9995
2 43687  64.3428 236.6220 0009565 269.3776 305.0962  2.13102182 31619
COSMOS 2534 (758)       
1 44299U 19030A   22331.27322007  .00000027  00000+0  00000+0 0  9992
2 44299  64.4139 236.4976 0012224 289.3846 252.8634  2.13101925 27277
COSMOS 2544 (759)       
1 44850U 19088A   22331.29215944  .00000063  00000+0  16595+1 0  9998
2 44850  64.9948 117.2266 0010815 249.1143 293.1064  2.13102344 23041
COSMOS 2545 (760)       
1 45358U 20018A   22331.27386816 -.00000048  00000+0  00000+0 0  9999
2 45358  64.9009 357.6639 0011461 247.1784 130.2853  2.13102777 21005
COSMOS 2547 (705K)      
1 46805U 20075A   22330.26176358  .00000037  00000+0  00000+0 0  9993
2 46805  64.6394 236.0046 0006887 247.2098 287.3249  2.13102983 16224
COSMOS 2557 (706K)      
1 52984U 22075A   22331.21966220 -.00000050  00000+0  10000-3 0  9992
2 52984  64.8070 359.8572 0013505 278.3543 148.4212  2.13101891  3045
COSMOS 2559 (707K)      
1 54031U 22130A   22330.74058119 -.00000048  00000+0  00000+0 0  9997
2 54031  64.7785   0.0119 0007623 227.5414 237.0557  2.13101536  1019
